BEIDOU-3 M1             
1 40748U 15037A   17345.88177358 -.00000104  00000-0  00000-0 0  9992
2 40748  55.5596  47.4738 0008194 255.9238 200.0208  1.86231424 16212
